{
    "links": {
        "self": "http://www.neowsapp.com/rest/v1/neo/3761393?api_key=iIulBulltgU6a56xZRHN4H3l9WmuAYTsLGpBGhQ2"
    },
    "id": "3761393",
    "neo_reference_id": "3761393",
    "name": "(2016 TQ93)",
    "designation": "2016 TQ93",
    "nasa_jpl_url": "http://ssd.jpl.nasa.gov/sbdb.cgi?sstr=3761393",
    "absolute_magnitude_h": 20.7,
    "estimated_diameter": {
        "kilometers": {
            "estimated_diameter_min": 0.1925550782,
            "estimated_diameter_max": 0.4305662442
        },
        "meters": {
            "estimated_diameter_min": 192.5550781879,
            "estimated_diameter_max": 430.566244241
        },
        "miles": {
            "estimated_diameter_min": 0.1196481415,
            "estimated_diameter_max": 0.2675413778
        },
        "feet": {
            "estimated_diameter_min": 631.7424027221,
            "estimated_diameter_max": 1412.6189567557
        }
    },
    "is_potentially_hazardous_asteroid": false,
    "close_approach_data": [
        {
            "close_approach_date": "1985-08-18",
            "close_approach_date_full": "1985-Aug-18 13:39",
            "epoch_date_close_approach": 493220340000,
            "relative_velocity": {
                "kilometers_per_second": "10.7809940985",
                "kilometers_per_hour": "38811.5787546396",
                "miles_per_hour": "24116.0056989593"
            },
            "miss_distance": {
                "astronomical": "0.277560772",
                "lunar": "107.971140308",
                "kilometers": "41522500.28675564",
                "miles": "25800885.275242232"
            },
            "orbiting_body": "Earth"
        },
        {
            "close_approach_date": "2009-08-20",
            "close_approach_date_full": "2009-Aug-20 04:12",
            "epoch_date_close_approach": 1250741520000,
            "relative_velocity": {
                "kilometers_per_second": "11.1867739931",
                "kilometers_per_hour": "40272.3863753162",
                "miles_per_hour": "25023.6947452625"
            },
            "miss_distance": {
                "astronomical": "0.2881555521",
                "lunar": "112.0925097669",
                "kilometers": "43107456.822834027",
                "miles": "26785731.5988304926"
            },
            "orbiting_body": "Earth"
        },
        {
            "close_approach_date": "2033-08-23",
            "close_approach_date_full": "2033-Aug-23 01:37",
            "epoch_date_close_approach": 2008373820000,
            "relative_velocity": {
                "kilometers_per_second": "12.2372748174",
                "kilometers_per_hour": "44054.1893427923",
                "miles_per_hour": "27373.5600391367"
            },
            "miss_distance": {
                "astronomical": "0.328816194",
                "lunar": "127.909499466",
                "kilometers": "49190202.24390678",
                "miles": "30565374.339122364"
            },
            "orbiting_body": "Earth"
        },
        {
            "close_approach_date": "2057-08-29",
            "close_approach_date_full": "2057-Aug-29 15:48",
            "epoch_date_close_approach": 2766325680000,
            "relative_velocity": {
                "kilometers_per_second": "15.3080613506",
                "kilometers_per_hour": "55109.020862084",
                "miles_per_hour": "34242.6024351099"
            },
            "miss_distance": {
                "astronomical": "0.4527372274",
                "lunar": "176.1147814586",
                "kilometers": "67728524.888745638",
                "miles": "42084553.8791722844"
            },
            "orbiting_body": "Earth"
        },
        {
            "close_approach_date": "2064-07-14",
            "close_approach_date_full": "2064-Jul-14 00:09",
            "epoch_date_close_approach": 2983219740000,
            "relative_velocity": {
                "kilometers_per_second": "13.9392148025",
                "kilometers_per_hour": "50181.1732891138",
                "miles_per_hour": "31180.6295917829"
            },
            "miss_distance": {
                "astronomical": "0.4583281665",
                "lunar": "178.2896567685",
                "kilometers": "68564917.469405355",
                "miles": "42604264.129509699"
            },
            "orbiting_body": "Earth"
        }
    ],
    "orbital_data": {
        "orbit_id": "6",
        "orbit_determination_date": "2017-04-06 08:22:59",
        "first_observation_date": "2016-10-09",
        "last_observation_date": "2016-11-05",
        "data_arc_in_days": 27,
        "observations_used": 32,
        "orbit_uncertainty": "6",
        "minimum_orbit_intersection": ".136556",
        "jupiter_tisserand_invariant": "3.417",
        "epoch_osculation": "2459000.5",
        "eccentricity": ".4951638596782096",
        "semi_major_axis": "2.273659343646316",
        "inclination": "10.74933577399601",
        "ascending_node_longitude": "140.5723372259653",
        "orbital_period": "1252.236968660032",
        "perihelion_distance": "1.147825407452981",
        "perihelion_argument": "170.3476917813346",
        "aphelion_distance": "3.399493279839651",
        "perihelion_time": "2458821.524246879814",
        "mean_anomaly": "51.45293801077614",
        "mean_motion": ".2874855231156618",
        "equinox": "J2000",
        "orbit_class": {
            "orbit_class_type": "AMO",
            "orbit_class_description": "Near-Earth asteroid orbits similar to that of 1221 Amor",
            "orbit_class_range": "1.017 AU < q (perihelion) < 1.3 AU"
        }
    },
    "is_sentry_object": false
}